[{"OBJECT_NAME":"SYMPHONIE 2","OBJECT_ID":"1975-077A","EPOCH":"2026-03-04T05:59:38.889024","MEAN_MOTION":0.99968061,"ECCENTRICITY":0.00071875,"INCLINATION":4.309,"RA_OF_ASC_NODE":275.9349,"ARG_OF_PERICENTER":41.9615,"MEAN_ANOMALY":152.2702,"EPHEMERIS_TYPE":0,"CLASSIFICATION_TYPE":"U","NORAD_CAT_ID":8132,"ELEMENT_SET_NO":999,"REV_AT_EPOCH":14140,"BSTAR":0,"MEAN_MOTION_DOT":1.08e-6,"MEAN_MOTION_DDOT":0},{"OBJECT_NAME":"MOLNIYA 2-14","OBJECT_ID":"1975-081A","EPOCH":"2026-03-01T02:11:22.959744","MEAN_MOTION":2.0209292,"ECCENTRICITY":0.68416345,"INCLINATION":64.5796,"RA_OF_ASC_NODE":45.3878,"ARG_OF_PERICENTER":284.193,"MEAN_ANOMALY":13.5366,"EPHEMERIS_TYPE":0,"CLASSIFICATION_TYPE":"U","NORAD_CAT_ID":8195,"ELEMENT_SET_NO":999,"REV_AT_EPOCH":37022,"BSTAR":0,"MEAN_MOTION_DOT":8.2e-6,"MEAN_MOTION_DDOT":0},{"OBJECT_NAME":"INTELSAT 4A-F1","OBJECT_ID":"1975-091A","EPOCH":"2026-03-04T14:59:02.887872","MEAN_MOTION":0.99921831,"ECCENTRICITY":0.0004473,"INCLINATION":8.0913,"RA_OF_ASC_NODE":305.0085,"ARG_OF_PERICENTER":280.9517,"MEAN_ANOMALY":262.6603,"EPHEMERIS_TYPE":0,"CLASSIFICATION_TYPE":"U","NORAD_CAT_ID":8330,"ELEMENT_SET_NO":999,"REV_AT_EPOCH":12042,"BSTAR":0,"MEAN_MOTION_DOT":-2.71e-6,"MEAN_MOTION_DDOT":0},{"OBJECT_NAME":"ATLAS CENTAUR R/B","OBJECT_ID":"1975-091B","EPOCH":"2026-03-04T16:13:42.051360","MEAN_MOTION":2.22311858,"ECCENTRICITY":0.7231847,"INCLINATION":21.3783,"RA_OF_ASC_NODE":201.5317,"ARG_OF_PERICENTER":98.6352,"MEAN_ANOMALY":341.7772,"EPHEMERIS_TYPE":0,"CLASSIFICATION_TYPE":"U","NORAD_CAT_ID":8331,"ELEMENT_SET_NO":999,"REV_AT_EPOCH":40647,"BSTAR":0.00078634,"MEAN_MOTION_DOT":1.18e-6,"MEAN_MOTION_DDOT":0},{"OBJECT_NAME":"COSMOS 775","OBJECT_ID":"1975-097A","EPOCH":"2026-03-04T16:17:20.256288","MEAN_MOTION":1.00198147,"ECCENTRICITY":0.000983,"INCLINATION":2.6291,"RA_OF_ASC_NODE":263.1909,"ARG_OF_PERICENTER":175.8462,"MEAN_ANOMALY":25.0163,"EPHEMERIS_TYPE":0,"CLASSIFICATION_TYPE":"U","NORAD_CAT_ID":8357,"ELEMENT_SET_NO":999,"REV_AT_EPOCH":13071,"BSTAR":0,"MEAN_MOTION_DOT":6.8e-7,"MEAN_MOTION_DDOT":0},{"OBJECT_NAME":"GOES 1 (SMS-C)","OBJECT_ID":"1975-100A","EPOCH":"2026-03-04T10:38:38.463936","MEAN_MOTION":1.00237439,"ECCENTRICITY":0.0005416,"INCLINATION":4.8745,"RA_OF_ASC_NODE":278.7497,"ARG_OF_PERICENTER":359.8682,"MEAN_ANOMALY":282.5793,"EPHEMERIS_TYPE":0,"CLASSIFICATION_TYPE":"U","NORAD_CAT_ID":8366,"ELEMENT_SET_NO":999,"REV_AT_EPOCH":18401,"BSTAR":0,"MEAN_MOTION_DOT":-1.0e-8,"MEAN_MOTION_DDOT":0},{"OBJECT_NAME":"SATCOM 1","OBJECT_ID":"1975-117A","EPOCH":"2026-03-03T19:27:22.340736","MEAN_MOTION":0.99598723,"ECCENTRICITY":0.0014134,"INCLINATION":8.2146,"RA_OF_ASC_NODE":305.3175,"ARG_OF_PERICENTER":283.9377,"MEAN_ANOMALY":276.0797,"EPHEMERIS_TYPE":0,"CLASSIFICATION_TYPE":"U","NORAD_CAT_ID":8476,"ELEMENT_SET_NO":999,"REV_AT_EPOCH":4531,"BSTAR":0,"MEAN_MOTION_DOT":1.02e-6,"MEAN_MOTION_DDOT":0},{"OBJECT_NAME":"OPS 3165 (DSP 5)","OBJECT_ID":"1975-118A","EPOCH":"2026-03-04T03:47:16.313280","MEAN_MOTION":1.00462517,"ECCENTRICITY":0.00348641,"INCLINATION":2.5621,"RA_OF_ASC_NODE":260.6316,"ARG_OF_PERICENTER":25.2122,"MEAN_ANOMALY":297.4521,"EPHEMERIS_TYPE":0,"CLASSIFICATION_TYPE":"U","NORAD_CAT_ID":8482,"ELEMENT_SET_NO":999,"REV_AT_EPOCH":2539,"BSTAR":0,"MEAN_MOTION_DOT":4.8e-7,"MEAN_MOTION_DDOT":0},{"OBJECT_NAME":"RADUGA 1","OBJECT_ID":"1975-123A","EPOCH":"2026-03-04T18:45:39.900384","MEAN_MOTION":1.00248356,"ECCENTRICITY":0.000435,"INCLINATION":3.072,"RA_OF_ASC_NODE":268.2259,"ARG_OF_PERICENTER":301.0459,"MEAN_ANOMALY":313.8468,"EPHEMERIS_TYPE":0,"CLASSIFICATION_TYPE":"U","NORAD_CAT_ID":8513,"ELEMENT_SET_NO":999,"REV_AT_EPOCH":19376,"BSTAR":0,"MEAN_MOTION_DOT":-1.35e-6,"MEAN_MOTION_DDOT":0},{"OBJECT_NAME":"TITAN 3C TRANSTAGE R/B","OBJECT_ID":"1975-118C","EPOCH":"2026-03-04T03:14:03.192288","MEAN_MOTION":1.00551626,"ECCENTRICITY":0.00109877,"INCLINATION":2.5395,"RA_OF_ASC_NODE":260.9347,"ARG_OF_PERICENTER":212.6695,"MEAN_ANOMALY":146.6858,"EPHEMERIS_TYPE":0,"CLASSIFICATION_TYPE":"U","NORAD_CAT_ID":8516,"ELEMENT_SET_NO":999,"REV_AT_EPOCH":2472,"BSTAR":0,"MEAN_MOTION_DOT":6.0e-7,"MEAN_MOTION_DDOT":0},{"OBJECT_NAME":"CTS","OBJECT_ID":"1976-004A","EPOCH":"2026-03-04T04:27:38.803392","MEAN_MOTION":1.00202205,"ECCENTRICITY":0.00115541,"INCLINATION":4.2008,"RA_OF_ASC_NODE":273.5315,"ARG_OF_PERICENTER":291.622,"MEAN_ANOMALY":287.1265,"EPHEMERIS_TYPE":0,"CLASSIFICATION_TYPE":"U","NORAD_CAT_ID":8585,"ELEMENT_SET_NO":999,"REV_AT_EPOCH":12124,"BSTAR":0,"MEAN_MOTION_DOT":-1.48e-6,"MEAN_MOTION_DDOT":0},{"OBJECT_NAME":"MOLNIYA 1-32","OBJECT_ID":"1976-006A","EPOCH":"2026-02-28T20:30:01.140768","MEAN_MOTION":1.99980108,"ECCENTRICITY":0.6717582,"INCLINATION":63.6359,"RA_OF_ASC_NODE":146.1135,"ARG_OF_PERICENTER":277.1158,"MEAN_ANOMALY":16.6412,"EPHEMERIS_TYPE":0,"CLASSIFICATION_TYPE":"U","NORAD_CAT_ID":8601,"ELEMENT_SET_NO":999,"REV_AT_EPOCH":7971,"BSTAR":0,"MEAN_MOTION_DOT":1.181e-5,"MEAN_MOTION_DDOT":0},{"OBJECT_NAME":"INTELSAT 4A-F2","OBJECT_ID":"1976-010A","EPOCH":"2026-03-03T19:23:07.747584","MEAN_MOTION":0.99686673,"ECCENTRICITY":0.00068036,"INCLINATION":8.1242,"RA_OF_ASC_NODE":304.6124,"ARG_OF_PERICENTER":315.3422,"MEAN_ANOMALY":229.5085,"EPHEMERIS_TYPE":0,"CLASSIFICATION_TYPE":"U","NORAD_CAT_ID":8620,"ELEMENT_SET_NO":999,"REV_AT_EPOCH":61956,"BSTAR":0,"MEAN_MOTION_DOT":9.3e-7,"MEAN_MOTION_DDOT":0},{"OBJECT_NAME":"ATLAS CENTAUR R/B","OBJECT_ID":"1976-010B","EPOCH":"2026-03-04T12:15:38.797344","MEAN_MOTION":2.20732692,"ECCENTRICITY":0.71784375,"INCLINATION":21.3177,"RA_OF_ASC_NODE":139.467,"ARG_OF_PERICENTER":188.3405,"MEAN_ANOMALY":144.7497,"EPHEMERIS_TYPE":0,"CLASSIFICATION_TYPE":"U","NORAD_CAT_ID":8621,"ELEMENT_SET_NO":999,"REV_AT_EPOCH":28325,"BSTAR":0.0015264606,"MEAN_MOTION_DOT":-7.3e-7,"MEAN_MOTION_DDOT":0},{"OBJECT_NAME":"LES-8","OBJECT_ID":"1976-023A","EPOCH":"2026-03-03T22:08:35.212128","MEAN_MOTION":1.00269848,"ECCENTRICITY":0.0032081,"INCLINATION":22.2036,"RA_OF_ASC_NODE":38.3703,"ARG_OF_PERICENTER":156.8745,"MEAN_ANOMALY":195.2085,"EPHEMERIS_TYPE":0,"CLASSIFICATION_TYPE":"U","NORAD_CAT_ID":8746,"ELEMENT_SET_NO":999,"REV_AT_EPOCH":12862,"BSTAR":0,"MEAN_MOTION_DOT":-1.23e-6,"MEAN_MOTION_DDOT":0},{"OBJECT_NAME":"LES-9","OBJECT_ID":"1976-023B","EPOCH":"2026-03-03T10:09:48.776544","MEAN_MOTION":1.00276001,"ECCENTRICITY":0.00239127,"INCLINATION":22.1642,"RA_OF_ASC_NODE":38.3886,"ARG_OF_PERICENTER":180.8526,"MEAN_ANOMALY":350.9954,"EPHEMERIS_TYPE":0,"CLASSIFICATION_TYPE":"U","NORAD_CAT_ID":8747,"ELEMENT_SET_NO":999,"REV_AT_EPOCH":12861,"BSTAR":0,"MEAN_MOTION_DOT":-1.25e-6,"MEAN_MOTION_DDOT":0},{"OBJECT_NAME":"TITAN 3C TRANSTAGE R/B","OBJECT_ID":"1976-023F","EPOCH":"2026-03-03T16:34:53.871456","MEAN_MOTION":0.98327506,"ECCENTRICITY":0.01205593,"INCLINATION":21.6493,"RA_OF_ASC_NODE":44.0355,"ARG_OF_PERICENTER":103.389,"MEAN_ANOMALY":67.8665,"EPHEMERIS_TYPE":0,"CLASSIFICATION_TYPE":"U","NORAD_CAT_ID":8751,"ELEMENT_SET_NO":999,"REV_AT_EPOCH":18217,"BSTAR":0,"MEAN_MOTION_DOT":-3.15e-6,"MEAN_MOTION_DDOT":0}]
