SYMPHONIE 2             
1 08132U 75077A   26063.24975566  .00000108  00000+0  00000+0 0  9998
2 08132   4.3090 275.9349 0007187  41.9615 152.2702  0.99968061141407
MOLNIYA 2-14            
1 08195U 75081A   26060.09123796  .00000820  00000+0  00000+0 0  9993
2 08195  64.5796  45.3878 6841634 284.1930  13.5366  2.02092920370220
INTELSAT 4A-F1          
1 08330U 75091A   26063.62433898 -.00000271  00000+0  00000+0 0  9995
2 08330   8.0913 305.0085 0004473 280.9517 262.6603  0.99921831120424
ATLAS CENTAUR R/B       
1 08331U 75091B   26063.67618115  .00000118  00000+0  78634-3 0  9999
2 08331  21.3783 201.5317 7231847  98.6352 341.7772  2.22311858406479
COSMOS 775              
1 08357U 75097A   26063.67870667  .00000068  00000+0  00000+0 0  9997
2 08357   2.6291 263.1909 0009830 175.8462  25.0163  1.00198147130718
GOES 1 (SMS-C)          
1 08366U 75100A   26063.44350074 -.00000001  00000+0  00000+0 0  9990
2 08366   4.8745 278.7497 0005416 359.8682 282.5793  1.00237439184013
SATCOM 1                
1 08476U 75117A   26062.81067524  .00000102  00000+0  00000+0 0  9996
2 08476   8.2146 305.3175 0014134 283.9377 276.0797  0.99598723 45317
OPS 3165 (DSP 5)        
1 08482U 75118A   26063.15782770  .00000048  00000+0  00000+0 0  9998
2 08482   2.5621 260.6316 0034864  25.2122 297.4521  1.00462517 25398
RADUGA 1                
1 08513U 75123A   26063.78171181 -.00000135  00000+0  00000+0 0  9994
2 08513   3.0720 268.2259 0004350 301.0459 313.8468  1.00248356193767
TITAN 3C TRANSTAGE R/B  
1 08516U 75118C   26063.13475917  .00000060  00000+0  00000+0 0  9990
2 08516   2.5395 260.9347 0010987 212.6695 146.6858  1.00551626 24722
CTS                     
1 08585U 76004A   26063.18586578 -.00000148  00000+0  00000+0 0  9990
2 08585   4.2008 273.5315 0011554 291.6220 287.1265  1.00202205121249
MOLNIYA 1-32            
1 08601U 76006A   26059.85417987  .00001181  00000+0  00000+0 0  9994
2 08601  63.6359 146.1135 6717582 277.1158  16.6412  1.99980108 79716
INTELSAT 4A-F2          
1 08620U 76010A   26062.80772856  .00000093  00000+0  00000+0 0  9999
2 08620   8.1242 304.6124 0006803 315.3422 229.5085  0.99686673619564
ATLAS CENTAUR R/B       
1 08621U 76010B   26063.51086571 -.00000073  00000+0  15265-2 0  9992
2 08621  21.3177 139.4670 7178437 188.3405 144.7497  2.20732692283255
LES-8                   
1 08746U 76023A   26062.92262977 -.00000123  00000+0  00000+0 0  9998
2 08746  22.2036  38.3703 0032081 156.8745 195.2085  1.00269848128623
LES-9                   
1 08747U 76023B   26062.42348121 -.00000125  00000+0  00000+0 0  9992
2 08747  22.1642  38.3886 0023912 180.8526 350.9954  1.00276001128618
TITAN 3C TRANSTAGE R/B  
1 08751U 76023F   26062.69090129 -.00000315  00000+0  00000+0 0  9999
2 08751  21.6493  44.0355 0120559 103.3890  67.8665  0.98327506182172
